CCSDS_OMM_VERS = 2.0
CREATION_DATE  = 
ORIGINATOR     = 

OBJECT_NAME    = STARLINK-36538
OBJECT_ID      = 2026-012V
CENTER_NAME    = EARTH
REF_FRAME      = TEME
TIME_SYSTEM    = UTC
MEAN_ELEMENT_THEORY = SGP/SGP4

EPOCH          = 2026-02-08T06:00:02.000160
MEAN_MOTION    = 15.62390828
ECCENTRICITY   = .00013585
INCLINATION    = 42.9991
RA_OF_ASC_NODE = 122.1711
ARG_OF_PERICENTER = 267.4160
MEAN_ANOMALY   = 33.8730

EPHEMERIS_TYPE = 0
CLASSIFICATION_TYPE = U
NORAD_CAT_ID   = 67512
ELEMENT_SET_NO = 999
REV_AT_EPOCH   = 433
BSTAR          = -.23876876E-1
MEAN_MOTION_DOT = -.1922092E-1
MEAN_MOTION_DDOT = 0

CCSDS_OMM_VERS = 2.0
CREATION_DATE  = 
ORIGINATOR     = 

OBJECT_NAME    = STARLINK-36531
OBJECT_ID      = 2026-012W
CENTER_NAME    = EARTH
REF_FRAME      = TEME
TIME_SYSTEM    = UTC
MEAN_ELEMENT_THEORY = SGP/SGP4

EPOCH          = 2026-02-08T06:00:02.000160
MEAN_MOTION    = 15.63269701
ECCENTRICITY   = .00014057
INCLINATION    = 42.9990
RA_OF_ASC_NODE = 122.1245
ARG_OF_PERICENTER = 267.2569
MEAN_ANOMALY   = 52.9960

EPHEMERIS_TYPE = 0
CLASSIFICATION_TYPE = U
NORAD_CAT_ID   = 67513
ELEMENT_SET_NO = 999
REV_AT_EPOCH   = 427
BSTAR          = -.23022085E-1
MEAN_MOTION_DOT = -.1919352E-1
MEAN_MOTION_DDOT = 0

CCSDS_OMM_VERS = 2.0
CREATION_DATE  = 
ORIGINATOR     = 

OBJECT_NAME    = STARLINK-36530
OBJECT_ID      = 2026-012X
CENTER_NAME    = EARTH
REF_FRAME      = TEME
TIME_SYSTEM    = UTC
MEAN_ELEMENT_THEORY = SGP/SGP4

EPOCH          = 2026-02-08T06:00:02.000160
MEAN_MOTION    = 15.62317901
ECCENTRICITY   = .00013902
INCLINATION    = 42.9990
RA_OF_ASC_NODE = 122.1481
ARG_OF_PERICENTER = 264.0833
MEAN_ANOMALY   = 46.2617

EPHEMERIS_TYPE = 0
CLASSIFICATION_TYPE = U
NORAD_CAT_ID   = 67514
ELEMENT_SET_NO = 999
REV_AT_EPOCH   = 428
BSTAR          = -.23903313E-1
MEAN_MOTION_DOT = -.1919111E-1
MEAN_MOTION_DDOT = 0

CCSDS_OMM_VERS = 2.0
CREATION_DATE  = 
ORIGINATOR     = 

OBJECT_NAME    = STARLINK-36543
OBJECT_ID      = 2026-012Y
CENTER_NAME    = EARTH
REF_FRAME      = TEME
TIME_SYSTEM    = UTC
MEAN_ELEMENT_THEORY = SGP/SGP4

EPOCH          = 2026-02-08T06:00:02.000160
MEAN_MOTION    = 15.61306359
ECCENTRICITY   = .00013913
INCLINATION    = 42.9993
RA_OF_ASC_NODE = 122.1774
ARG_OF_PERICENTER = 265.5539
MEAN_ANOMALY   = 32.7513

EPHEMERIS_TYPE = 0
CLASSIFICATION_TYPE = U
NORAD_CAT_ID   = 67515
ELEMENT_SET_NO = 999
REV_AT_EPOCH   = 428
BSTAR          = -.2460964E-1
MEAN_MOTION_DOT = -.1901201E-1
MEAN_MOTION_DDOT = 0

CCSDS_OMM_VERS = 2.0
CREATION_DATE  = 
ORIGINATOR     = 

OBJECT_NAME    = STARLINK-36537
OBJECT_ID      = 2026-012Z
CENTER_NAME    = EARTH
REF_FRAME      = TEME
TIME_SYSTEM    = UTC
MEAN_ELEMENT_THEORY = SGP/SGP4

EPOCH          = 2026-02-08T06:00:02.000160
MEAN_MOTION    = 15.63357060
ECCENTRICITY   = .00013911
INCLINATION    = 42.9990
RA_OF_ASC_NODE = 122.0595
ARG_OF_PERICENTER = 273.9764
MEAN_ANOMALY   = 71.7070

EPHEMERIS_TYPE = 0
CLASSIFICATION_TYPE = U
NORAD_CAT_ID   = 67516
ELEMENT_SET_NO = 999
REV_AT_EPOCH   = 428
BSTAR          = -.22913353E-1
MEAN_MOTION_DOT = -.1917208E-1
MEAN_MOTION_DDOT = 0

CCSDS_OMM_VERS = 2.0
CREATION_DATE  = 
ORIGINATOR     = 

OBJECT_NAME    = STARLINK-36544
OBJECT_ID      = 2026-012AA
CENTER_NAME    = EARTH
REF_FRAME      = TEME
TIME_SYSTEM    = UTC
MEAN_ELEMENT_THEORY = SGP/SGP4

EPOCH          = 2026-02-08T06:00:02.000160
MEAN_MOTION    = 15.64262974
ECCENTRICITY   = .000143
INCLINATION    = 42.9993
RA_OF_ASC_NODE = 122.0418
ARG_OF_PERICENTER = 274.3794
MEAN_ANOMALY   = 78.5596

EPHEMERIS_TYPE = 0
CLASSIFICATION_TYPE = U
NORAD_CAT_ID   = 67517
ELEMENT_SET_NO = 999
REV_AT_EPOCH   = 433
BSTAR          = -.2210485E-1
MEAN_MOTION_DOT = -.1917682E-1
MEAN_MOTION_DDOT = 0

CCSDS_OMM_VERS = 2.0
CREATION_DATE  = 
ORIGINATOR     = 

OBJECT_NAME    = STARLINK-36412
OBJECT_ID      = 2026-012AB
CENTER_NAME    = EARTH
REF_FRAME      = TEME
TIME_SYSTEM    = UTC
MEAN_ELEMENT_THEORY = SGP/SGP4

EPOCH          = 2026-02-08T06:00:02.000160
MEAN_MOTION    = 15.63483963
ECCENTRICITY   = .00013444
INCLINATION    = 42.9992
RA_OF_ASC_NODE = 122.0124
ARG_OF_PERICENTER = 271.8589
MEAN_ANOMALY   = 92.7054

EPHEMERIS_TYPE = 0
CLASSIFICATION_TYPE = U
NORAD_CAT_ID   = 67518
ELEMENT_SET_NO = 999
REV_AT_EPOCH   = 428
BSTAR          = -.22852011E-1
MEAN_MOTION_DOT = -.1921196E-1
MEAN_MOTION_DDOT = 0

CCSDS_OMM_VERS = 2.0
CREATION_DATE  = 
ORIGINATOR     = 

OBJECT_NAME    = STARLINK-36415
OBJECT_ID      = 2026-012AC
CENTER_NAME    = EARTH
REF_FRAME      = TEME
TIME_SYSTEM    = UTC
MEAN_ELEMENT_THEORY = SGP/SGP4

EPOCH          = 2026-02-08T06:00:02.000160
MEAN_MOTION    = 15.63681014
ECCENTRICITY   = .00013223
INCLINATION    = 42.9993
RA_OF_ASC_NODE = 121.9874
ARG_OF_PERICENTER = 273.0526
MEAN_ANOMALY   = 101.1006

EPHEMERIS_TYPE = 0
CLASSIFICATION_TYPE = U
NORAD_CAT_ID   = 67519
ELEMENT_SET_NO = 999
REV_AT_EPOCH   = 449
BSTAR          = -.22630245E-1
MEAN_MOTION_DOT = -.1917967E-1
MEAN_MOTION_DDOT = 0

CCSDS_OMM_VERS = 2.0
CREATION_DATE  = 
ORIGINATOR     = 

OBJECT_NAME    = STARLINK-36547
OBJECT_ID      = 2026-012AD
CENTER_NAME    = EARTH
REF_FRAME      = TEME
TIME_SYSTEM    = UTC
MEAN_ELEMENT_THEORY = SGP/SGP4

EPOCH          = 2026-02-08T06:00:02.000160
MEAN_MOTION    = 15.63302416
ECCENTRICITY   = .0001383
INCLINATION    = 42.9990
RA_OF_ASC_NODE = 122.0304
ARG_OF_PERICENTER = 271.2576
MEAN_ANOMALY   = 85.7925

EPHEMERIS_TYPE = 0
CLASSIFICATION_TYPE = U
NORAD_CAT_ID   = 67520
ELEMENT_SET_NO = 999
REV_AT_EPOCH   = 428
BSTAR          = -.22965803E-1
MEAN_MOTION_DOT = -.1917393E-1
MEAN_MOTION_DDOT = 0

CCSDS_OMM_VERS = 2.0
CREATION_DATE  = 
ORIGINATOR     = 

OBJECT_NAME    = STARLINK-36444
OBJECT_ID      = 2026-012AE
CENTER_NAME    = EARTH
REF_FRAME      = TEME
TIME_SYSTEM    = UTC
MEAN_ELEMENT_THEORY = SGP/SGP4

EPOCH          = 2026-02-08T06:00:02.000160
MEAN_MOTION    = 15.61620238
ECCENTRICITY   = .00014404
INCLINATION    = 42.9993
RA_OF_ASC_NODE = 122.1143
ARG_OF_PERICENTER = 268.9695
MEAN_ANOMALY   = 54.3240

EPHEMERIS_TYPE = 0
CLASSIFICATION_TYPE = U
NORAD_CAT_ID   = 67521
ELEMENT_SET_NO = 999
REV_AT_EPOCH   = 427
BSTAR          = -.24239656E-1
MEAN_MOTION_DOT = -.1896445E-1
MEAN_MOTION_DDOT = 0

CCSDS_OMM_VERS = 2.0
CREATION_DATE  = 
ORIGINATOR     = 

OBJECT_NAME    = HULIANWANG DIGUI-146
OBJECT_ID      = 2026-013A
CENTER_NAME    = EARTH
REF_FRAME      = TEME
TIME_SYSTEM    = UTC
MEAN_ELEMENT_THEORY = SGP/SGP4

EPOCH          = 2026-02-07T08:51:07.006176
MEAN_MOTION    = 13.84482708
ECCENTRICITY   = .00007546
INCLINATION    = 50.0089
RA_OF_ASC_NODE = 108.8737
ARG_OF_PERICENTER = 312.4491
MEAN_ANOMALY   = 47.6341

EPHEMERIS_TYPE = 0
CLASSIFICATION_TYPE = U
NORAD_CAT_ID   = 67522
ELEMENT_SET_NO = 999
REV_AT_EPOCH   = 266
BSTAR          = .13500517E-3
MEAN_MOTION_DOT = .8E-7
MEAN_MOTION_DDOT = 0

CCSDS_OMM_VERS = 2.0
CREATION_DATE  = 
ORIGINATOR     = 

OBJECT_NAME    = HULIANWANG DIGUI-147
OBJECT_ID      = 2026-013B
CENTER_NAME    = EARTH
REF_FRAME      = TEME
TIME_SYSTEM    = UTC
MEAN_ELEMENT_THEORY = SGP/SGP4

EPOCH          = 2026-02-07T08:48:53.961408
MEAN_MOTION    = 13.84520340
ECCENTRICITY   = .00009361
INCLINATION    = 50.0063
RA_OF_ASC_NODE = 108.8509
ARG_OF_PERICENTER = 339.5535
MEAN_ANOMALY   = 20.5324

EPHEMERIS_TYPE = 0
CLASSIFICATION_TYPE = U
NORAD_CAT_ID   = 67523
ELEMENT_SET_NO = 999
REV_AT_EPOCH   = 266
BSTAR          = .12015598E-3
MEAN_MOTION_DOT = -.9E-7
MEAN_MOTION_DDOT = 0

