STARLINK-36538          
1 67512U 26012V   26039.25002315 -.01922092  00000+0 -23877-1 0  9994
2 67512  42.9991 122.1711 0001358 267.4160  33.8730 15.62390828  4333
STARLINK-36531          
1 67513U 26012W   26039.25002315 -.01919352  00000+0 -23022-1 0  9992
2 67513  42.9990 122.1245 0001405 267.2569  52.9960 15.63269701  4275
STARLINK-36530          
1 67514U 26012X   26039.25002315 -.01919111  00000+0 -23903-1 0  9994
2 67514  42.9990 122.1481 0001390 264.0833  46.2617 15.62317901  4281
STARLINK-36543          
1 67515U 26012Y   26039.25002315 -.01901201  00000+0 -24610-1 0  9992
2 67515  42.9993 122.1774 0001391 265.5539  32.7513 15.61306359  4289
STARLINK-36537          
1 67516U 26012Z   26039.25002315 -.01917208  00000+0 -22913-1 0  9991
2 67516  42.9990 122.0595 0001391 273.9764  71.7070 15.63357060  4288
STARLINK-36544          
1 67517U 26012AA  26039.25002315 -.01917682  00000+0 -22105-1 0  9991
2 67517  42.9993 122.0418 0001430 274.3794  78.5596 15.64262974  4332
STARLINK-36412          
1 67518U 26012AB  26039.25002315 -.01921196  00000+0 -22852-1 0  9996
2 67518  42.9992 122.0124 0001344 271.8589  92.7054 15.63483963  4287
STARLINK-36415          
1 67519U 26012AC  26039.25002315 -.01917967  00000+0 -22630-1 0  9992
2 67519  42.9993 121.9874 0001322 273.0526 101.1006 15.63681014  4492
STARLINK-36547          
1 67520U 26012AD  26039.25002315 -.01917393  00000+0 -22966-1 0  9999
2 67520  42.9990 122.0304 0001383 271.2576  85.7925 15.63302416  4283
STARLINK-36444          
1 67521U 26012AE  26039.25002315 -.01896445  00000+0 -24240-1 0  9991
2 67521  42.9993 122.1143 0001440 268.9695  54.3240 15.61620238  4272
HULIANWANG DIGUI-146    
1 67522U 26013A   26038.36883109  .00000008  00000+0  13501-3 0  9991
2 67522  50.0089 108.8737 0000754 312.4491  47.6341 13.84482708  2664
HULIANWANG DIGUI-147    
1 67523U 26013B   26038.36729122 -.00000009  00000+0  12016-3 0  9998
2 67523  50.0063 108.8509 0000936 339.5535  20.5324 13.84520340  2661
